[{"OBJECT_NAME":"STARLINK-35802","OBJECT_ID":"2025-247AA","EPOCH":"2026-03-09T14:34:30.306144","MEAN_MOTION":15.30201194,"ECCENTRICITY":0.0001882,"INCLINATION":53.1598,"RA_OF_ASC_NODE":191.636,"ARG_OF_PERICENTER":32.231,"MEAN_ANOMALY":327.8805,"EPHEMERIS_TYPE":0,"CLASSIFICATION_TYPE":"U","NORAD_CAT_ID":66289,"ELEMENT_SET_NO":999,"REV_AT_EPOCH":2102,"BSTAR":0.0011903,"MEAN_MOTION_DOT":0.00035061,"MEAN_MOTION_DDOT":0},{"OBJECT_NAME":"PEGASUS DEB","OBJECT_ID":"1994-029AG","EPOCH":"2026-03-09T11:16:42.963744","MEAN_MOTION":15.37636263,"ECCENTRICITY":0.0031206,"INCLINATION":82.0362,"RA_OF_ASC_NODE":86.2933,"ARG_OF_PERICENTER":155.6019,"MEAN_ANOMALY":204.671,"EPHEMERIS_TYPE":0,"CLASSIFICATION_TYPE":"U","NORAD_CAT_ID":23986,"ELEMENT_SET_NO":999,"REV_AT_EPOCH":61542,"BSTAR":0.00061808813,"MEAN_MOTION_DOT":0.00023279,"MEAN_MOTION_DDOT":0}]
